NORAD_CAT_ID,OBJECT_NAME,OBJECT_TYPE,EPOCH,MEAN_MOTION,ECCENTRICITY,INCLINATION,RA_OF_ASC_NODE,ARG_OF_PERICENTER,MEAN_ANOMALY,BSTAR,MEAN_MOTION_DOT,MEAN_MOTION_DDOT,TLE_LINE0,TLE_LINE1,TLE_LINE2,SEMIMAJOR_AXIS,PERIOD,APOGEE,PERIGEE,DECAYED
52634.0,STARLINK-3974,PAYLOAD,2022-07-06 14:00:01,15.62093735,0.0001281999999999,53.2173,178.7885,68.5357,118.9939,-0.013134,-0.01067016,0.0,0 STARLINK-3974,1 52634U 22052AN  22187.58334491 -.01067016  00000-0 -13134-1 0  9994,2 52634  53.2173 178.7885 0001282  68.5357 118.9939 15.62093735  1309,6759.746999999999,92.184,382.479,380.745,0.0
52634.0,STARLINK-3974,PAYLOAD,2022-07-06 22:00:00,15.61331863,0.0001177,53.2173,177.1676,79.9054,182.741,-0.013474,-0.01062908,0.0,0 STARLINK-3974,1 52634U 22052AN  22187.91667824 -.01062908  00000-0 -13474-1 0  9992,2 52634  53.2173 177.1676 0001177  79.9054 182.7410 15.61331863  1302,6761.946,92.229,384.607,383.015,0.0
52634.0,STARLINK-3974,PAYLOAD,2022-07-07 14:00:01,15.59813892,0.0001057,53.2173,173.9363,71.9384,338.1989,-0.0143,-0.01063611,0.0,0 STARLINK-3974,1 52634U 22052AN  22188.58334491 -.01063611  00000-0 -14300-1 0  9998,2 52634  53.2173 173.9363 0001057  71.9384 338.1989 15.59813892  1306,6766.331999999999,92.319,388.912,387.482,0.0
52634.0,STARLINK-3974,PAYLOAD,2022-07-07 20:00:01,15.59241757,9.95e-05,53.2173,172.7244,83.7955,290.7127,-0.014566,-0.01060185,0.0,0 STARLINK-3974,1 52634U 22052AN  22188.83334491 -.01060185  00000-0 -14566-1 0  9993,2 52634  53.2173 172.7244 0000995  83.7955 290.7127 15.59241757  8877,6767.986999999999,92.353,390.526,389.179,0.0
52634.0,STARLINK-3974,PAYLOAD,2022-07-07 22:00:00,15.59054163,0.0001197,53.2175,172.321,78.1431,44.3722,-0.014716,-0.01063212,0.0,0 STARLINK-3974,1 52634U 22052AN  22188.91667824 -.01063212  00000-0 -14716-1 0  9992,2 52634  53.2175 172.3210 0001197  78.1431  44.3722 15.59054163  1308,6768.53,92.364,391.205,389.585,0.0
52634.0,STARLINK-3974,PAYLOAD,2022-07-08 03:37:52,15.59651161,0.0001067,53.214,171.1639,282.145,77.9445,-0.0025927,-0.00205785,0.0,0 STARLINK-3974,1 52634U 22052AN  22189.15130723 -.00205785  00000-0 -25927-2 0  9991,2 52634  53.2140 171.1639 0001067 282.1450  77.9445 15.59651161  8926,6766.803000000001,92.328,389.39,387.946,0.0
52634.0,STARLINK-3974,PAYLOAD,2022-07-08 14:00:01,15.57536489,0.0001171,53.2174,169.1003,78.9762,185.5545,-0.015625,-0.01065411,0.0,0 STARLINK-3974,1 52634U 22052AN  22189.58334491 -.01065411  00000-0 -15625-1 0  9990,2 52634  53.2174 169.1003 0001171  78.9762 185.5545 15.57536489  1303,6772.926,92.454,395.584,393.99800000000016,0.0
52634.0,STARLINK-3974,PAYLOAD,2022-07-08 20:00:01,15.56964437,0.0001256,53.2174,167.8927,73.2799,153.632,-0.015895,-0.01061152,0.0,0 STARLINK-3974,1 52634U 22052AN  22189.83335648 -.01061152  00000-0 -15895-1 0  9990,2 52634  53.2174 167.8927 0001256  73.2799 153.6320 15.56964437  9037,6774.585,92.488,397.301,395.599,0.0
52634.0,STARLINK-3974,PAYLOAD,2022-07-08 22:00:01,15.5677343,0.0001106,53.2177,167.4909,72.9741,261.2621,-0.015972,-0.01058847,0.0,0 STARLINK-3974,1 52634U 22052AN  22189.91668981 -.01058847  00000-0 -15972-1 0  9991,2 52634  53.2177 167.4909 0001106  72.9741 261.2621 15.56773430  1306,6775.139,92.499,397.754,396.255,0.0
52634.0,STARLINK-3974,PAYLOAD,2022-07-09 14:00:01,15.55256531,0.000115,53.2173,164.2811,83.6057,27.1048,-0.016955,-0.01061871,0.0,0 STARLINK-3974,1 52634U 22052AN  22190.58334491 -.01061871  00000-0 -16955-1 0  9995,2 52634  53.2173 164.2811 0001150  83.6057  27.1048 15.55256531  1306,6779.544,92.589,402.189,400.629,0.0
52634.0,STARLINK-3974,PAYLOAD,2022-07-09 20:00:01,15.54685382,0.0001224,53.2173,163.0778,57.1441,13.8293,-0.017291,-0.01060423,0.0,0 STARLINK-3974,1 52634U 22052AN  22190.83334491 -.01060423  00000-0 -17291-1 0  9999,2 52634  53.2173 163.0778 0001224  57.1441  13.8293 15.54685382  1303,6781.204000000002,92.623,403.899,402.239,0.0
52634.0,STARLINK-3974,PAYLOAD,2022-07-10 04:00:00,15.5392609,0.0001392,53.2173,161.4782,59.408,77.7805,-0.017765,-0.01059582,0.0,0 STARLINK-3974,1 52634U 22052AN  22191.16667824 -.01059582  00000-0 -17765-1 0  9995,2 52634  53.2173 161.4782 0001392  59.4080  77.7805 15.53926090  9242,6783.413000000001,92.669,406.222,404.334,0.0
52634.0,STARLINK-3974,PAYLOAD,2022-07-10 14:00:01,15.52979083,0.0001095,53.2174,159.4784,83.7243,224.9513,-0.018465,-0.01063359,0.0,0 STARLINK-3974,1 52634U 22052AN  22191.58334491 -.01063359  00000-0 -18465-1 0  9997,2 52634  53.2174 159.4784 0001095  83.7243 224.9513 15.52979083  1303,6786.170999999999,92.725,408.779,407.292,0.0
52634.0,STARLINK-3974,PAYLOAD,2022-07-10 22:00:00,15.52216402,0.0001123,53.2175,157.8803,68.682,304.158,-0.018864,-0.01057242,0.0,0 STARLINK-3974,1 52634U 22052AN  22191.91667824 -.01057242  00000-0 -18864-1 0  9990,2 52634  53.2175 157.8803 0001123  68.6820 304.1580 15.52216402  1307,6788.393,92.771,411.021,409.496,0.0
52634.0,STARLINK-3974,PAYLOAD,2022-07-11 14:00:01,15.50592164,0.000106,53.2174,154.6911,68.557,69.8899,-0.014006,-0.00752327,0.0,0 STARLINK-3974,1 52634U 22052AN  22192.58334491 -.00752327  00000-0 -14006-1 0  9994,2 52634  53.2174 154.6911 0001060  68.5570  69.8899 15.50592164  1300,6793.1330000000025,92.868,415.718,414.278,0.0
52634.0,STARLINK-3974,PAYLOAD,2022-07-11 22:00:00,15.49944284,0.0001298,53.2177,153.097,63.6465,136.2437,-0.0016602999999999,-0.00093758,0.0,0 STARLINK-3974,1 52634U 22052AN  22192.91667824 -.00093758  00000-0 -16603-2 0  9992,2 52634  53.2177 153.0970 0001298  63.6465 136.2437 15.49944284  1302,6795.026,92.907,417.773,416.009,0.0
52634.0,STARLINK-3974,PAYLOAD,2022-07-12 04:00:00,15.49967035,0.0001308,53.2158,151.8988,68.4121,87.1811,-0.0013578,-0.00076983,0.0,0 STARLINK-3974,1 52634U 22052AN  22193.16667824 -.00076983  00000-0 -13578-2 0  9999,2 52634  53.2158 151.8988 0001308  68.4121  87.1811 15.49967035  9554,6794.959,92.905,417.713,415.936,0.0
52634.0,STARLINK-3974,PAYLOAD,2022-07-12 12:00:00,15.49986826,0.0001188,53.2149,150.3018,69.5465,147.0344,-0.0022246,-0.00125161,0.0,0 STARLINK-3974,1 52634U 22052AN  22193.50001157 -.00125161  00000-0 -22246-2 0  9993,2 52634  53.2149 150.3018 0001188  69.5465 147.0344 15.49986826  9603,6794.901999999999,92.904,417.574,415.959,0.0
52634.0,STARLINK-3974,PAYLOAD,2022-07-12 14:00:01,15.49962943,0.000114,53.2152,149.9029,73.4473,248.3879,-0.0018645,-0.00105151,0.0,0 STARLINK-3974,1 52634U 22052AN  22193.58334491 -.00105151  00000-0 -18645-2 0  9996,2 52634  53.2152 149.9029 0001140  73.4473 248.3879 15.49962943  1305,6794.971,92.905,417.611,416.062,0.0
52634.0,STARLINK-3974,PAYLOAD,2022-07-12 22:00:00,15.49928449,0.000112,53.2162,148.3104,78.3613,304.4112,-0.001361,-0.00077057,0.0,0 STARLINK-3974,1 52634U 22052AN  22193.91667824 -.00077057  00000-0 -13610-2 0  9992,2 52634  53.2162 148.3104 0001120  78.3613 304.4112 15.49928449  1308,6795.071999999999,92.908,417.698,416.176,0.0
52634.0,STARLINK-3974,PAYLOAD,2022-07-13 04:00:00,15.49913853,0.0001255,53.217,147.1199,69.9432,268.5334,-0.0028925,-0.00161442,0.0,0 STARLINK-3974,1 52634U 22052AN  22194.16667824 -.00161442  00000-0 -28925-2 0  9997,2 52634  53.2170 147.1199 0001255  69.9432 268.5334 15.49913853  9703,6795.115,92.908,417.833,416.127,0.0
52634.0,STARLINK-3974,PAYLOAD,2022-07-13 12:00:02,15.49807156,0.0001308,53.2169,145.5304,67.0946,332.3394,-0.0090808,-0.00483886,0.0,0 STARLINK-3974,1 52634U 22052AN  22194.50002315 -.00483886  00000-0 -90808-2 0  9991,2 52634  53.2169 145.5304 0001308  67.0946 332.3394 15.49807156  9769,6795.427,92.915,418.181,416.403,0.0
52634.0,STARLINK-3974,PAYLOAD,2022-07-13 14:00:01,15.49803469,0.0001446,53.2173,145.1328,74.7577,69.7848,-0.012944,-0.00673137,0.0,0 STARLINK-3974,1 52634U 22052AN  22194.58334491 -.00673137  00000-0 -12944-1 0  9996,2 52634  53.2173 145.1328 0001446  74.7577  69.7848 15.49803469  1304,6795.437,92.915,418.285,416.32,0.0
52634.0,STARLINK-3974,PAYLOAD,2022-07-13 20:00:01,15.49507931,0.0001203,53.2174,143.9406,76.7886,23.2072,-0.020801,-0.01057787,0.0,0 STARLINK-3974,1 52634U 22052AN  22194.83334491 -.01057787  00000-0 -20801-1 0  9993,2 52634  53.2174 143.9406 0001203  76.7886  23.2072 15.49507931  9817,6796.302,92.933,418.984,417.349,0.0
52634.0,STARLINK-3974,PAYLOAD,2022-07-13 22:00:00,15.49317784,0.0001305,53.2175,143.5438,82.5116,122.5683,-0.020923,-0.01056945,0.0,0 STARLINK-3974,1 52634U 22052AN  22194.91667824 -.01056945  00000-0 -20923-1 0  9991,2 52634  53.2175 143.5438 0001305  82.5116 122.5683 15.49317784  1305,6796.858,92.944,419.61,417.836,0.0
52634.0,STARLINK-3974,PAYLOAD,2022-07-14 12:00:00,15.47990822,0.0001274,53.2173,140.7659,78.7858,140.2865,-0.022018,-0.01060936,0.0,0 STARLINK-3974,1 52634U 22052AN  22195.50001157 -.01060936  00000-0 -22018-1 0  9990,2 52634  53.2173 140.7659 0001274  78.7858 140.2865 15.47990822  9914,6800.741,93.024,423.473,421.74,0.0
52634.0,STARLINK-3974,PAYLOAD,2022-07-14 14:00:01,15.47801004,0.0001082,53.2175,140.3689,82.5099,241.1905,-0.022169,-0.01061049,0.0,0 STARLINK-3974,1 52634U 22052AN  22195.58334491 -.01061049  00000-0 -22169-1 0  9991,2 52634  53.2175 140.3689 0001082  82.5099 241.1905 15.47801004  1306,6801.297,93.035,423.898,422.426,0.0
52634.0,STARLINK-3974,PAYLOAD,2022-07-14 22:00:00,15.47040382,0.0001091,53.2175,138.784,80.0527,301.5896,-0.022705,-0.01058423,0.0,0 STARLINK-3974,1 52634U 22052AN  22195.91667824 -.01058423  00000-0 -22705-1 0  9995,2 52634  53.2175 138.7840 0001091  80.0527 301.5896 15.47040382  1309,6803.526,93.081,426.134,424.649,0.0
52634.0,STARLINK-3974,PAYLOAD,2022-07-15 04:00:00,15.46470815,0.0001126,53.2175,137.59799999999998,86.2939,248.2048,-0.023168,-0.01058767,0.0,0 STARLINK-3974,1 52634U 22052AN  22196.16667824 -.01058767  00000-0 -23168-1 0  9998,2 52634  53.2175 137.5980 0001126  86.2939 248.2048 15.46470815 10016,6805.196999999999,93.115,427.828,426.296,0.0
